EUTELSAT 8 WEST B       
1 40875U 15039B   25351.12560000 -.00000041  00000+0  00000+0 0  9996
2 40875   0.0640 350.0771 0004318 277.0116 216.1477  1.00271883 37838
EUTELSAT 9B             
1 41310U 16005A   25350.98635128  .00000086  00000+0  00000+0 0  9990
2 41310   0.0551  69.3446 0004488 203.9712 176.6287  1.00271677 36290
EUTELSAT 65 WEST A      
1 41382U 16014A   25351.18566038 -.00000252  00000+0  00000+0 0  9991
2 41382   0.0573 324.7434 0002323 311.0741 171.8771  1.00270306 35716
EUTELSAT 117 WEST B     
1 41589U 16038B   25350.32058647  .00000012  00000+0  00000+0 0  9996
2 41589   0.0424 167.2106 0000135  90.3228 186.0956  1.00271538 34824
EUTELSAT 172B           
1 42741U 17029B   25351.16130691  .00000019  00000+0  00000+0 0  9998
2 42741   0.0474 152.6379 0000184 300.6567 222.8089  1.00272160 31901
EUTELSAT 7C             
1 44334U 19034B   25350.62922242  .00000072  00000+0  00000+0 0  9996
2 44334   0.0725 176.9051 0003076  71.4959  70.6234  1.00271584  5009
EUTELSAT 5 WEST B       
1 44624U 19067A   25351.19753380 -.00000017  00000+0  00000+0 0  9992
2 44624   0.0711 328.9443 0003186 297.4561 245.8033  1.00273488 22615
EUTELSAT KONNECT        
1 45027U 20005B   25350.70065041  .00000073  00000+0  00000+0 0  9991
2 45027   0.0734  96.0000 0001340 191.4860  57.5312  1.00270775 22507
